OBJECT_NAME,OBJECT_ID,EPOCH,MEAN_MOTION,ECCENTRICITY,INCLINATION,RA_OF_ASC_NODE,ARG_OF_PERICENTER,MEAN_ANOMALY,EPHEMERIS_TYPE,CLASSIFICATION_TYPE,NORAD_CAT_ID,ELEMENT_SET_NO,REV_AT_EPOCH,BSTAR,MEAN_MOTION_DOT,MEAN_MOTION_DDOT
BEIDOU-2 IGSO-5 (C10),2011-073A,2026-07-02T17:30:18.330912,1.00270596,.01145273,47.6496,271.3544,222.0502,141.5350,0,U,37948,999,5329,0,-.128E-5,0
LUCH 5A (SDCM/PRN 140),2011-074B,2026-07-14T15:06:55.243584,1.00272985,.0002603,8.8213,73.4026,60.6892,192.1111,0,U,37951,999,5332,0,-.63E-6,0
BEIDOU-2 G5 (C05),2012-008A,2026-07-14T20:53:41.930016,1.00270138,.0007317,3.6398,69.5147,268.7503,326.5472,0,U,38091,999,5264,0,.47E-6,0
BEIDOU-2 M3 (C11),2012-018A,2026-07-13T11:59:29.452416,1.86229839,.00209873,55.7337,303.9888,272.3154,87.4648,0,U,38250,999,9643,0,-.69E-6,0
BEIDOU-2 M4 (C12),2012-018B,2026-07-13T23:15:17.405280,1.86229381,.00123057,55.6326,303.1845,272.1181,87.7646,0,U,38251,999,9644,0,-.68E-6,0
SES-5 (EGNOS/PRN 136),2012-036A,2026-07-14T18:34:24.439008,1.00271395,.0001894,0.0471,318.8452,154.3989,102.9646,0,U,38652,999,4473,0,.25E-6,0
BEIDOU-2 M6 (C14),2012-050B,2026-07-12T01:37:29.166816,1.86230839,.00129868,56.5659,62.0719,1.2706,358.8013,0,U,38775,999,9377,0,-.42E-6,0
GSAT-10 (GAGAN/PRN 128),2012-051B,2026-07-14T18:56:43.365120,1.00272864,.0007375,0.0928,264.7727,189.3721,205.6648,0,U,38779,999,5037,0,-.173E-5,0
GPS BIIF-3  (PRN 24),2012-053A,2026-07-14T05:43:46.902720,2.00567880,.0181954,53.5895,142.4911,66.2040,295.6480,0,U,38833,999,9998,0,0,0
GSAT0103 (GALILEO-FM3),2012-055A,2026-07-13T06:51:10.050336,1.70473329,.0003756,55.8215,100.8292,311.8113,48.1723,0,U,38857,999,8545,0,-.3E-6,0
BEIDOU-2 G6 (C02),2012-059A,2026-07-14T18:56:58.340832,1.00273816,.000876,4.4884,73.2179,327.1353,260.5160,0,U,38953,999,5018,0,-.187E-5,0
LUCH 5B (SDCM/PRN 125),2012-061A,2026-07-14T09:55:02.132832,1.00270374,.00038926,10.5395,49.6048,146.9492,228.2086,0,U,38977,999,4988,0,-.15E-5,0
COSMOS 2485 (747),2013-019A,2026-07-14T14:18:43.289568,2.13103196,.002268,65.4348,72.6854,231.1740,128.6989,0,U,39155,999,10286,0,-.8E-7,0
GPS BIIF-4  (PRN 27),2013-023A,2026-07-14T14:31:16.133376,2.00563302,.0141389,54.4832,267.8556,51.1130,310.2190,0,U,39166,999,9643,0,.1E-7,0
IRNSS-1A,2013-034A,2026-07-10T17:17:25.712736,1.00281941,.0017567,35.7704,63.5328,183.4462,356.2994,0,U,39199,999,4760,0,.47E-6,0
GPS BIIF-5  (PRN 30),2014-008A,2026-07-14T02:35:54.408768,2.00561465,.00841009,53.6576,148.2217,231.5400,127.6603,0,U,39533,999,9022,0,.6E-7,0
ASTRA 5B (EGNOS/PRN 123),2014-011B,2026-07-14T20:11:21.922944,1.00267805,.0001851,0.0778,301.3174,179.3620,138.3429,0,U,39617,999,4494,0,.128E-5,0
COSMOS 2492 (754),2014-012A,2026-07-14T02:03:42.701760,2.13103240,.00103208,65.2804,313.0224,317.8524,42.0766,0,U,39620,999,9581,0,-.62E-6,0
IRNSS-1B,2014-017A,2026-07-14T17:05:50.362080,1.00275623,.0022292,28.8764,239.9282,191.6992,172.5370,0,U,39635,999,4507,0,.134E-5,0
LUCH 5V (SDCM/PRN 141),2014-023A,2026-07-14T17:17:23.672832,1.00273815,.0002061,5.1978,69.4503,83.9337,133.2571,0,U,39727,999,4463,0,-.281E-5,0
GPS BIIF-6  (PRN 06),2014-026A,2026-07-14T09:13:24.584448,2.00558896,.00381318,56.4837,330.4591,325.8080,33.9415,0,U,39741,999,8908,0,-.93E-6,0
COSMOS 2500 (755),2014-032A,2026-07-14T17:23:23.967744,2.13105832,.0008224,65.2150,312.7457,190.0502,169.9443,0,U,40001,999,9404,0,-.61E-6,0
GPS BIIF-7  (PRN 09),2014-045A,2026-07-13T23:27:31.684320,2.00560136,.00343708,55.3703,87.3975,118.3669,242.0263,0,U,40105,999,8661,0,-.29E-6,0
GSAT0201 (GALILEO 5),2014-050A,2026-07-13T19:51:11.485728,1.85519408,.16784209,48.8455,272.3427,180.4632,179.4259,0,U,40128,999,7881,0,-.19E-6,0
GSAT0202 (GALILEO 6),2014-050B,2026-07-14T01:59:01.990752,1.85520425,.1679589,48.8629,271.4179,181.1559,178.4672,0,U,40129,999,8098,0,-.18E-6,0
IRNSS-1C,2014-061A,2026-07-14T16:57:16.295904,1.00272415,.0022094,6.5853,88.4083,5.4026,176.1158,0,U,40269,999,4296,0,-.175E-5,0
GPS BIIF-8  (PRN 03),2014-068A,2026-07-13T20:17:45.765312,2.00553095,.00674073,57.0059,29.9286,72.2432,288.5439,0,U,40294,999,8574,0,-.59E-6,0
COSMOS 2501 (702K),2014-075A,2026-07-14T01:09:44.871264,2.13101105,.0022586,63.6185,189.4424,212.6579,147.2095,0,U,40315,999,9042,0,.65E-6,0
GPS BIIF-9  (PRN 26),2015-013A,2026-07-13T23:41:33.190944,2.00549700,.01103054,53.1661,203.0692,40.3694,320.4736,0,U,40534,999,8236,0,.63E-6,0
GSAT0203 (GALILEO 7),2015-017A,2026-07-14T04:41:39.104736,1.70476147,.00026107,56.7773,340.8603,256.3881,103.5685,0,U,40544,999,6966,0,-.97E-6,0
GSAT0204 (GALILEO 8),2015-017B,2026-07-13T20:45:25.165440,1.70475628,.00027511,56.7839,340.8880,234.6933,125.2671,0,U,40545,999,3270,0,-.96E-6,0
